[{"OBJECT_NAME":"STARLINK-3138","OBJECT_ID":"2021-104Y","EPOCH":"2026-03-09T18:15:29.554272","MEAN_MOTION":15.08838589,"ECCENTRICITY":0.00012775,"INCLINATION":53.2166,"RA_OF_ASC_NODE":229.0841,"ARG_OF_PERICENTER":82.1387,"MEAN_ANOMALY":277.9751,"EPHEMERIS_TYPE":0,"CLASSIFICATION_TYPE":"U","NORAD_CAT_ID":49430,"ELEMENT_SET_NO":999,"REV_AT_EPOCH":23864,"BSTAR":8.9419211e-5,"MEAN_MOTION_DOT":1.135e-5,"MEAN_MOTION_DDOT":0},{"OBJECT_NAME":"KUIPER-00164","OBJECT_ID":"2025-301B","EPOCH":"2026-03-09T22:00:01.999584","MEAN_MOTION":15.08488187,"ECCENTRICITY":0.00045568,"INCLINATION":51.8847,"RA_OF_ASC_NODE":66.2292,"ARG_OF_PERICENTER":84.8156,"MEAN_ANOMALY":198.9561,"EPHEMERIS_TYPE":0,"CLASSIFICATION_TYPE":"U","NORAD_CAT_ID":67134,"ELEMENT_SET_NO":999,"REV_AT_EPOCH":541,"BSTAR":0.00024752424,"MEAN_MOTION_DOT":3.618e-5,"MEAN_MOTION_DDOT":0}]
